{
  "type": "FeatureCollection",
  "features": [
    {
      "type": "Feature",
      "properties": {
        "norad_id": 66884,
        "name": "STARLINK-36057",
        "group": "last-30-days",
        "lat": -52.51013794632902,
        "lon": -72.13060816746254,
        "alt_km": 403.1242659057507,
        "timestamp": "2025-12-26T10:30:48.975951+00:00",
        "meta_object_name": "STARLINK-36057",
        "meta_object_id": "2025-283G",
        "meta_epoch": "2025-12-26T04:00:01.998720",
        "meta_mean_motion": 15.57844617,
        "meta_eccentricity": 0.0001481,
        "meta_inclination": 53.16,
        "meta_ra_of_asc_node": 6.9833,
        "meta_arg_of_pericenter": 83.042,
        "meta_mean_anomaly": 112.1441,
        "meta_ephemeris_type": 0,
        "meta_classification_type": "U",
        "meta_norad_cat_id": 66884,
        "meta_element_set_no": 999,
        "meta_rev_at_epoch": 458,
        "meta_bstar": -0.030246,
        "meta_mean_motion_dot": -0.0201142,
        "meta_mean_motion_ddot": 0,
        "tle_line1": "1 66884U 25283G   25360.16668980 -.02011420  00000+0 -30246-1 0  9999",
        "tle_line2": "2 66884  53.1600   6.9833 0001481  83.0420 112.1441 15.57844617  4588"
      },
      "geometry": {
        "type": "Point",
        "coordinates": [
          -72.13060816746254,
          -52.51013794632902
        ]
      }
    },
    {
      "type": "Feature",
      "properties": {
        "norad_id": 66885,
        "name": "STARLINK-35954",
        "group": "last-30-days",
        "lat": -52.79257741931511,
        "lon": -75.24520513785527,
        "alt_km": 403.1704108983322,
        "timestamp": "2025-12-26T10:30:48.975962+00:00",
        "meta_object_name": "STARLINK-35954",
        "meta_object_id": "2025-283H",
        "meta_epoch": "2025-12-26T04:00:01.998720",
        "meta_mean_motion": 15.57844672,
        "meta_eccentricity": 0.000153,
        "meta_inclination": 53.1598,
        "meta_ra_of_asc_node": 6.9874,
        "meta_arg_of_pericenter": 81.9766,
        "meta_mean_anomaly": 111.2932,
        "meta_ephemeris_type": 0,
        "meta_classification_type": "U",
        "meta_norad_cat_id": 66885,
        "meta_element_set_no": 999,
        "meta_rev_at_epoch": 458,
        "meta_bstar": -0.030266,
        "meta_mean_motion_dot": -0.02012629,
        "meta_mean_motion_ddot": 0,
        "tle_line1": "1 66885U 25283H   25360.16668980 -.02012629  00000+0 -30266-1 0  9994",
        "tle_line2": "2 66885  53.1598   6.9874 0001530  81.9766 111.2932 15.57844672  4581"
      },
      "geometry": {
        "type": "Point",
        "coordinates": [
          -75.24520513785527,
          -52.79257741931511
        ]
      }
    },
    {
      "type": "Feature",
      "properties": {
        "norad_id": 66886,
        "name": "STARLINK-35900",
        "group": "last-30-days",
        "lat": -52.146664894074426,
        "lon": -69.06479857536587,
        "alt_km": 403.17990812027983,
        "timestamp": "2025-12-26T10:30:48.975972+00:00",
        "meta_object_name": "STARLINK-35900",
        "meta_object_id": "2025-283J",
        "meta_epoch": "2025-12-26T04:00:01.998720",
        "meta_mean_motion": 15.57841433,
        "meta_eccentricity": 0.0001586,
        "meta_inclination": 53.1596,
        "meta_ra_of_asc_node": 6.979,
        "meta_arg_of_pericenter": 83.7212,
        "meta_mean_anomaly": 113.3818,
        "meta_ephemeris_type": 0,
        "meta_classification_type": "U",
        "meta_norad_cat_id": 66886,
        "meta_element_set_no": 999,
        "meta_rev_at_epoch": 458,
        "meta_bstar": -0.030174,
        "meta_mean_motion_dot": -0.02007096,
        "meta_mean_motion_ddot": 0,
        "tle_line1": "1 66886U 25283J   25360.16668980 -.02007096  00000+0 -30174-1 0  9995",
        "tle_line2": "2 66886  53.1596   6.9790 0001586  83.7212 113.3818 15.57841433  4582"
      },
      "geometry": {
        "type": "Point",
        "coordinates": [
          -69.06479857536587,
          -52.146664894074426
        ]
      }
    },
    {
      "type": "Feature",
      "properties": {
        "norad_id": 66887,
        "name": "STARLINK-35925",
        "group": "last-30-days",
        "lat": -51.70422748398369,
        "lon": -66.04688480971322,
        "alt_km": 403.15311638762887,
        "timestamp": "2025-12-26T10:30:48.975982+00:00",
        "meta_object_name": "STARLINK-35925",
        "meta_object_id": "2025-283K",
        "meta_epoch": "2025-12-26T04:00:01.998720",
        "meta_mean_motion": 15.57841759,
        "meta_eccentricity": 0.0001552,
        "meta_inclination": 53.1596,
        "meta_ra_of_asc_node": 6.9753,
        "meta_arg_of_pericenter": 87.2423,
        "meta_mean_anomaly": 111.779,
        "meta_ephemeris_type": 0,
        "meta_classification_type": "U",
        "meta_norad_cat_id": 66887,
        "meta_element_set_no": 999,
        "meta_rev_at_epoch": 458,
        "meta_bstar": -0.030197,
        "meta_mean_motion_dot": -0.02008427,
        "meta_mean_motion_ddot": 0,
        "tle_line1": "1 66887U 25283K   25360.16668980 -.02008427  00000+0 -30197-1 0  9990",
        "tle_line2": "2 66887  53.1596   6.9753 0001552  87.2423 111.7790 15.57841759  4580"
      },
      "geometry": {
        "type": "Point",
        "coordinates": [
          -66.04688480971322,
          -51.70422748398369
        ]
      }
    },
    {
      "type": "Feature",
      "properties": {
        "norad_id": 66888,
        "name": "STARLINK-35919",
        "group": "last-30-days",
        "lat": -51.187315988576984,
        "lon": -63.09958536332608,
        "alt_km": 403.0924642595537,
        "timestamp": "2025-12-26T10:30:48.975992+00:00",
        "meta_object_name": "STARLINK-35919",
        "meta_object_id": "2025-283L",
        "meta_epoch": "2025-12-26T04:00:01.998720",
        "meta_mean_motion": 15.57838037,
        "meta_eccentricity": 0.0001509,
        "meta_inclination": 53.1598,
        "meta_ra_of_asc_node": 6.971,
        "meta_arg_of_pericenter": 86.1088,
        "meta_mean_anomaly": 114.8286,
        "meta_ephemeris_type": 0,
        "meta_classification_type": "U",
        "meta_norad_cat_id": 66888,
        "meta_element_set_no": 999,
        "meta_rev_at_epoch": 458,
        "meta_bstar": -0.030069,
        "meta_mean_motion_dot": -0.02000718,
        "meta_mean_motion_ddot": 0,
        "tle_line1": "1 66888U 25283L   25360.16668980 -.02000718  00000+0 -30069-1 0  9994",
        "tle_line2": "2 66888  53.1598   6.9710 0001509  86.1088 114.8286 15.57838037  4582"
      },
      "geometry": {
        "type": "Point",
        "coordinates": [
          -63.09958536332608,
          -51.187315988576984
        ]
      }
    },
    {
      "type": "Feature",
      "properties": {
        "norad_id": 66889,
        "name": "STARLINK-35852",
        "group": "last-30-days",
        "lat": -50.59637247255531,
        "lon": -60.21767100772299,
        "alt_km": 403.1152483620717,
        "timestamp": "2025-12-26T10:30:48.976003+00:00",
        "meta_object_name": "STARLINK-35852",
        "meta_object_id": "2025-283M",
        "meta_epoch": "2025-12-26T04:00:01.998720",
        "meta_mean_motion": 15.57840243,
        "meta_eccentricity": 0.0001556,
        "meta_inclination": 53.1596,
        "meta_ra_of_asc_node": 6.9664,
        "meta_arg_of_pericenter": 89.3624,
        "meta_mean_anomaly": 113.4919,
        "meta_ephemeris_type": 0,
        "meta_classification_type": "U",
        "meta_norad_cat_id": 66889,
        "meta_element_set_no": 999,
        "meta_rev_at_epoch": 458,
        "meta_bstar": -0.030147,
        "meta_mean_motion_dot": -0.02005435,
        "meta_mean_motion_ddot": 0,
        "tle_line1": "1 66889U 25283M   25360.16668980 -.02005435  00000+0 -30147-1 0  9993",
        "tle_line2": "2 66889  53.1596   6.9664 0001556  89.3624 113.4919 15.57840243  4582"
      },
      "geometry": {
        "type": "Point",
        "coordinates": [
          -60.21767100772299,
          -50.59637247255531
        ]
      }
    },
    {
      "type": "Feature",
      "properties": {
        "norad_id": 66890,
        "name": "STARLINK-35885",
        "group": "last-30-days",
        "lat": -49.93730501844627,
        "lon": -57.41436813788578,
        "alt_km": 403.08830621795005,
        "timestamp": "2025-12-26T10:30:48.976013+00:00",
        "meta_object_name": "STARLINK-35885",
        "meta_object_id": "2025-283N",
        "meta_epoch": "2025-12-26T04:00:01.998720",
        "meta_mean_motion": 15.57841063,
        "meta_eccentricity": 0.0001578,
        "meta_inclination": 53.1598,
        "meta_ra_of_asc_node": 6.9627,
        "meta_arg_of_pericenter": 87.4915,
        "meta_mean_anomaly": 117.278,
        "meta_ephemeris_type": 0,
        "meta_classification_type": "U",
        "meta_norad_cat_id": 66890,
        "meta_element_set_no": 999,
        "meta_rev_at_epoch": 458,
        "meta_bstar": -0.030145,
        "meta_mean_motion_dot": -0.02005404,
        "meta_mean_motion_ddot": 0,
        "tle_line1": "1 66890U 25283N   25360.16668980 -.02005404  00000+0 -30145-1 0  9999",
        "tle_line2": "2 66890  53.1598   6.9627 0001578  87.4915 117.2780 15.57841063  4580"
      },
      "geometry": {
        "type": "Point",
        "coordinates": [
          -57.41436813788578,
          -49.93730501844627
        ]
      }
    }
  ]
}